CCSDS_OMM_VERS = 2.0
CREATION_DATE  = 
ORIGINATOR     = 

OBJECT_NAME    = STARLINK-36466
OBJECT_ID      = 2026-003AA
CENTER_NAME    = EARTH
REF_FRAME      = TEME
TIME_SYSTEM    = UTC
MEAN_ELEMENT_THEORY = SGP/SGP4

EPOCH          = 2026-02-08T02:13:09.178176
MEAN_MOTION    = 15.50586314
ECCENTRICITY   = .0001172
INCLINATION    = 42.9984
RA_OF_ASC_NODE = 34.5362
ARG_OF_PERICENTER = 257.0983
MEAN_ANOMALY   = 102.9746

EPHEMERIS_TYPE = 0
CLASSIFICATION_TYPE = U
NORAD_CAT_ID   = 67358
ELEMENT_SET_NO = 999
REV_AT_EPOCH   = 429
BSTAR          = .12833E-2
MEAN_MOTION_DOT = .75694E-3
MEAN_MOTION_DDOT = 0

CCSDS_OMM_VERS = 2.0
CREATION_DATE  = 
ORIGINATOR     = 

OBJECT_NAME    = STARLINK-36499
OBJECT_ID      = 2026-003AB
CENTER_NAME    = EARTH
REF_FRAME      = TEME
TIME_SYSTEM    = UTC
MEAN_ELEMENT_THEORY = SGP/SGP4

EPOCH          = 2026-02-08T04:00:01.999584
MEAN_MOTION    = 15.34829874
ECCENTRICITY   = .00008
INCLINATION    = 42.9999
RA_OF_ASC_NODE = 34.3409
ARG_OF_PERICENTER = 246.9125
MEAN_ANOMALY   = 71.4302

EPHEMERIS_TYPE = 0
CLASSIFICATION_TYPE = U
NORAD_CAT_ID   = 67359
ELEMENT_SET_NO = 999
REV_AT_EPOCH   = 593
BSTAR          = -.62517E-1
MEAN_MOTION_DOT = -.1926115E-1
MEAN_MOTION_DDOT = 0

CCSDS_OMM_VERS = 2.0
CREATION_DATE  = 
ORIGINATOR     = 

OBJECT_NAME    = STARLINK-36469
OBJECT_ID      = 2026-003AC
CENTER_NAME    = EARTH
REF_FRAME      = TEME
TIME_SYSTEM    = UTC
MEAN_ELEMENT_THEORY = SGP/SGP4

EPOCH          = 2026-02-08T04:00:01.999584
MEAN_MOTION    = 15.36536093
ECCENTRICITY   = .0001189
INCLINATION    = 43.0007
RA_OF_ASC_NODE = 34.2873
ARG_OF_PERICENTER = 259.9988
MEAN_ANOMALY   = 79.8262

EPHEMERIS_TYPE = 0
CLASSIFICATION_TYPE = U
NORAD_CAT_ID   = 67360
ELEMENT_SET_NO = 999
REV_AT_EPOCH   = 593
BSTAR          = -.64103E-1
MEAN_MOTION_DOT = -.2104972E-1
MEAN_MOTION_DDOT = 0

CCSDS_OMM_VERS = 2.0
CREATION_DATE  = 
ORIGINATOR     = 

OBJECT_NAME    = STARLINK-35306
OBJECT_ID      = 2026-003AD
CENTER_NAME    = EARTH
REF_FRAME      = TEME
TIME_SYSTEM    = UTC
MEAN_ELEMENT_THEORY = SGP/SGP4

EPOCH          = 2026-02-08T02:11:51.222912
MEAN_MOTION    = 15.48123167
ECCENTRICITY   = .0015078
INCLINATION    = 42.9967
RA_OF_ASC_NODE = 34.5311
ARG_OF_PERICENTER = 311.1188
MEAN_ANOMALY   = 48.8369

EPHEMERIS_TYPE = 0
CLASSIFICATION_TYPE = U
NORAD_CAT_ID   = 67361
ELEMENT_SET_NO = 999
REV_AT_EPOCH   = 429
BSTAR          = .40471E-3
MEAN_MOTION_DOT = .21589E-3
MEAN_MOTION_DDOT = 0

CCSDS_OMM_VERS = 2.0
CREATION_DATE  = 
ORIGINATOR     = 

OBJECT_NAME    = STARLINK-36428
OBJECT_ID      = 2026-003AE
CENTER_NAME    = EARTH
REF_FRAME      = TEME
TIME_SYSTEM    = UTC
MEAN_ELEMENT_THEORY = SGP/SGP4

EPOCH          = 2026-02-08T02:11:52.924128
MEAN_MOTION    = 15.48545322
ECCENTRICITY   = .0002674
INCLINATION    = 42.9995
RA_OF_ASC_NODE = 34.5338
ARG_OF_PERICENTER = 315.9480
MEAN_ANOMALY   = 44.1166

EPHEMERIS_TYPE = 0
CLASSIFICATION_TYPE = U
NORAD_CAT_ID   = 67362
ELEMENT_SET_NO = 999
REV_AT_EPOCH   = 429
BSTAR          = -.87527E-2
MEAN_MOTION_DOT = -.451616E-2
MEAN_MOTION_DDOT = 0

CCSDS_OMM_VERS = 2.0
CREATION_DATE  = 
ORIGINATOR     = 

OBJECT_NAME    = LEMUR-2-KUTAR
OBJECT_ID      = 2026-004A
CENTER_NAME    = EARTH
REF_FRAME      = TEME
TIME_SYSTEM    = UTC
MEAN_ELEMENT_THEORY = SGP/SGP4

EPOCH          = 2026-02-07T22:26:04.304256
MEAN_MOTION    = 14.87067551
ECCENTRICITY   = .0008297
INCLINATION    = 97.8008
RA_OF_ASC_NODE = 39.6088
ARG_OF_PERICENTER = 195.3295
MEAN_ANOMALY   = 164.7671

EPHEMERIS_TYPE = 0
CLASSIFICATION_TYPE = U
NORAD_CAT_ID   = 67363
ELEMENT_SET_NO = 999
REV_AT_EPOCH   = 406
BSTAR          = .73907E-3
MEAN_MOTION_DOT = .6583E-4
MEAN_MOTION_DDOT = 0

CCSDS_OMM_VERS = 2.0
CREATION_DATE  = 
ORIGINATOR     = 

OBJECT_NAME    = LEMUR-2-CALLUM-K-J
OBJECT_ID      = 2026-004B
CENTER_NAME    = EARTH
REF_FRAME      = TEME
TIME_SYSTEM    = UTC
MEAN_ELEMENT_THEORY = SGP/SGP4

EPOCH          = 2026-02-08T00:00:16.680384
MEAN_MOTION    = 14.87202444
ECCENTRICITY   = .000829
INCLINATION    = 97.8009
RA_OF_ASC_NODE = 39.6773
ARG_OF_PERICENTER = 190.4300
MEAN_ANOMALY   = 169.6745

EPHEMERIS_TYPE = 0
CLASSIFICATION_TYPE = U
NORAD_CAT_ID   = 67364
ELEMENT_SET_NO = 999
REV_AT_EPOCH   = 408
BSTAR          = .72487E-3
MEAN_MOTION_DOT = .6477E-4
MEAN_MOTION_DDOT = 0

CCSDS_OMM_VERS = 2.0
CREATION_DATE  = 
ORIGINATOR     = 

OBJECT_NAME    = LEMUR-2-MARIO-SOUSA
OBJECT_ID      = 2026-004C
CENTER_NAME    = EARTH
REF_FRAME      = TEME
TIME_SYSTEM    = UTC
MEAN_ELEMENT_THEORY = SGP/SGP4

EPOCH          = 2026-02-07T23:59:43.279872
MEAN_MOTION    = 14.87223328
ECCENTRICITY   = .0007871
INCLINATION    = 97.7985
RA_OF_ASC_NODE = 39.6729
ARG_OF_PERICENTER = 195.5970
MEAN_ANOMALY   = 164.5004

EPHEMERIS_TYPE = 0
CLASSIFICATION_TYPE = U
NORAD_CAT_ID   = 67365
ELEMENT_SET_NO = 999
REV_AT_EPOCH   = 408
BSTAR          = .71591E-3
MEAN_MOTION_DOT = .6399E-4
MEAN_MOTION_DDOT = 0

CCSDS_OMM_VERS = 2.0
CREATION_DATE  = 
ORIGINATOR     = 

OBJECT_NAME    = TWILIGHT D
OBJECT_ID      = 2026-004D
CENTER_NAME    = EARTH
REF_FRAME      = TEME
TIME_SYSTEM    = UTC
MEAN_ELEMENT_THEORY = SGP/SGP4

EPOCH          = 2026-02-07T22:22:38.814816
MEAN_MOTION    = 14.87155493
ECCENTRICITY   = .0008456
INCLINATION    = 97.8042
RA_OF_ASC_NODE = 39.6183
ARG_OF_PERICENTER = 185.0111
MEAN_ANOMALY   = 175.1022

EPHEMERIS_TYPE = 0
CLASSIFICATION_TYPE = U
NORAD_CAT_ID   = 67366
ELEMENT_SET_NO = 999
REV_AT_EPOCH   = 407
BSTAR          = .44693E-3
MEAN_MOTION_DOT = .3967E-4
MEAN_MOTION_DDOT = 0

CCSDS_OMM_VERS = 2.0
CREATION_DATE  = 
ORIGINATOR     = 

OBJECT_NAME    = LEMUR-2-SONNENBLUME
OBJECT_ID      = 2026-004E
CENTER_NAME    = EARTH
REF_FRAME      = TEME
TIME_SYSTEM    = UTC
MEAN_ELEMENT_THEORY = SGP/SGP4

EPOCH          = 2026-02-07T23:56:40.288992
MEAN_MOTION    = 14.87342022
ECCENTRICITY   = .0007308
INCLINATION    = 97.7972
RA_OF_ASC_NODE = 39.6731
ARG_OF_PERICENTER = 196.9643
MEAN_ANOMALY   = 163.1330

EPHEMERIS_TYPE = 0
CLASSIFICATION_TYPE = U
NORAD_CAT_ID   = 67367
ELEMENT_SET_NO = 999
REV_AT_EPOCH   = 408
BSTAR          = .70263E-3
MEAN_MOTION_DOT = .6297E-4
MEAN_MOTION_DDOT = 0

CCSDS_OMM_VERS = 2.0
CREATION_DATE  = 
ORIGINATOR     = 

OBJECT_NAME    = LEMUR-2-WOBLER
OBJECT_ID      = 2026-004F
CENTER_NAME    = EARTH
REF_FRAME      = TEME
TIME_SYSTEM    = UTC
MEAN_ELEMENT_THEORY = SGP/SGP4

EPOCH          = 2026-02-08T01:32:37.036320
MEAN_MOTION    = 14.87364605
ECCENTRICITY   = .0007823
INCLINATION    = 97.8033
RA_OF_ASC_NODE = 39.7528
ARG_OF_PERICENTER = 185.3597
MEAN_ANOMALY   = 174.7537

EPHEMERIS_TYPE = 0
CLASSIFICATION_TYPE = U
NORAD_CAT_ID   = 67368
ELEMENT_SET_NO = 999
REV_AT_EPOCH   = 409
BSTAR          = .66659E-3
MEAN_MOTION_DOT = .5975E-4
MEAN_MOTION_DDOT = 0

CCSDS_OMM_VERS = 2.0
CREATION_DATE  = 
ORIGINATOR     = 

OBJECT_NAME    = TWILIGHT G
OBJECT_ID      = 2026-004G
CENTER_NAME    = EARTH
REF_FRAME      = TEME
TIME_SYSTEM    = UTC
MEAN_ELEMENT_THEORY = SGP/SGP4

EPOCH          = 2026-02-08T03:08:51.075744
MEAN_MOTION    = 14.87291327
ECCENTRICITY   = .000668
INCLINATION    = 97.7964
RA_OF_ASC_NODE = 39.8054
ARG_OF_PERICENTER = 198.5954
MEAN_ANOMALY   = 161.5019

EPHEMERIS_TYPE = 0
CLASSIFICATION_TYPE = U
NORAD_CAT_ID   = 67369
ELEMENT_SET_NO = 999
REV_AT_EPOCH   = 410
BSTAR          = .38447E-3
MEAN_MOTION_DOT = .3415E-4
MEAN_MOTION_DDOT = 0

