STARLINK-36466          
1 67358U 26003AA  26039.09246734  .00075694  00000+0  12833-2 0  9994
2 67358  42.9984  34.5362 0001172 257.0983 102.9746 15.50586314  4297
STARLINK-36499          
1 67359U 26003AB  26039.16668981 -.01926115  00000+0 -62517-1 0  9994
2 67359  42.9999  34.3409 0000800 246.9125  71.4302 15.34829874  5939
STARLINK-36469          
1 67360U 26003AC  26039.16668981 -.02104972  00000+0 -64103-1 0  9999
2 67360  43.0007  34.2873 0001189 259.9988  79.8262 15.36536093  5936
STARLINK-35306          
1 67361U 26003AD  26039.09156508  .00021589  00000+0  40471-3 0  9991
2 67361  42.9967  34.5311 0015078 311.1188  48.8369 15.48123167  4294
STARLINK-36428          
1 67362U 26003AE  26039.09158477 -.00451616  00000+0 -87527-2 0  9991
2 67362  42.9995  34.5338 0002674 315.9480  44.1166 15.48545322  4295
LEMUR-2-KUTAR           
1 67363U 26004A   26038.93477204  .00006583  00000+0  73907-3 0  9992
2 67363  97.8008  39.6088 0008297 195.3295 164.7671 14.87067551  4069
LEMUR-2-CALLUM-K-J      
1 67364U 26004B   26039.00019306  .00006477  00000+0  72487-3 0  9991
2 67364  97.8009  39.6773 0008290 190.4300 169.6745 14.87202444  4088
LEMUR-2-MARIO-SOUSA     
1 67365U 26004C   26038.99980648  .00006399  00000+0  71591-3 0  9993
2 67365  97.7985  39.6729 0007871 195.5970 164.5004 14.87223328  4081
TWILIGHT D              
1 67366U 26004D   26038.93239369  .00003967  00000+0  44693-3 0  9996
2 67366  97.8042  39.6183 0008456 185.0111 175.1022 14.87155493  4076
LEMUR-2-SONNENBLUME     
1 67367U 26004E   26038.99768853  .00006297  00000+0  70263-3 0  9999
2 67367  97.7972  39.6731 0007308 196.9643 163.1330 14.87342022  4089
LEMUR-2-WOBLER          
1 67368U 26004F   26039.06431755  .00005975  00000+0  66659-3 0  9993
2 67368  97.8033  39.7528 0007823 185.3597 174.7537 14.87364605  4095
TWILIGHT G              
1 67369U 26004G   26039.13114671  .00003415  00000+0  38447-3 0  9998
2 67369  97.7964  39.8054 0006680 198.5954 161.5019 14.87291327  4107
